{"fetched_at":"2026-03-30T20:46:33Z","count":15425,"tles":[{"name":"STARLINK-31515","line1":"1 59476U 24068X   26087.59047553  .00003569  00000+0  13913-3 0  9994","line2":"2 59476  43.0002 287.7454 0001384 269.2445  90.8248 15.27584556111414","category":"Starlink"}]}